CELESTIS-02 & TAURUS R/B
1 25160U 98007D   24163.29302520  .00000198  00000+0  14528-3 0  9997
2 25160 107.9996 287.2440 0063492 309.5191 106.8116 14.21998815365887
